      2.10          N: GNSS NAV DATA                        RINEX VERSION / TYPE
fic2rin                                 06/06/2020 00:17:44 PGM / RUN BY / DATE
                                                            END OF HEADER
14 20  6  5 23 59 44.0-7.932540029287e-06 2.728484105319e-12 0.000000000000e+00
    3.700000000000e+01-1.550000000000e+01 5.086997608155e-09-2.255325504503e-01
   -7.282942533493e-07 1.148076623213e-02 5.383044481277e-06 5.153641185760e+03
    5.183840000000e+05-8.381903171539e-08-1.168824098512e+00 8.009374141693e-08
    9.599945922452e-01 2.764687500000e+02-1.914177196752e+00-8.437851470382e-09
   -4.414469594664e-10 1.000000000000e+00 2.108000000000e+03 0.000000000000e+00
    2.400000000000e+00 0.000000000000e+00-9.778887033463e-09 3.700000000000e+01
    5.112000000000e+05 4.000000000000e+00
17 20  6  5 23 59 44.0 2.762717194855e-04 5.911715561524e-12 0.000000000000e+00
    2.800000000000e+01-6.112500000000e+01 4.385896975928e-09-8.536769798728e-02
   -3.399327397346e-06 1.321532903239e-02 3.129243850708e-07 5.153706981659e+03
    5.183840000000e+05-2.402812242508e-07 1.949906498507e+00 7.450580596924e-08
    9.836873229597e-01 3.874062500000e+02-1.642143132641e+00-8.583928983669e-09
   -6.785996949726e-11 1.000000000000e+00 2.108000000000e+03 0.000000000000e+00
    2.400000000000e+00 0.000000000000e+00-1.071020960808e-08 2.800000000000e+01
    5.112000000000e+05 4.000000000000e+00
 2 20  6  6  0  0  0.0-4.675681702793e-04-6.025402399246e-12 0.000000000000e+00
    6.000000000000e+01-1.558437500000e+02 4.313751113620e-09-1.892591508410e+00
   -7.729977369308e-06 1.970218750648e-02 9.031966328621e-06 5.153717952728e+03
    5.184000000000e+05 3.203749656677e-07 2.870697041106e+00 2.868473529816e-07
    9.596123288253e-01 1.981875000000e+02-1.626524302397e+00-7.688177386305e-09
   -8.928943354902e-12 1.000000000000e+00 2.108000000000e+03 0.000000000000e+00
    2.400000000000e+00 0.000000000000e+00-1.769512891769e-08 6.000000000000e+01
    5.112000000000e+05 4.000000000000e+00
 1 20  6  6  0  0  0.0 4.330649971962e-08-9.094947017729e-13 0.000000000000e+00
    4.900000000000e+01-1.504375000000e+02 3.805515657859e-09-2.129149421425e+00
   -7.957220077515e-06 9.932211250998e-03 1.051276922226e-05 5.153719236374e+03
    5.184000000000e+05 1.285225152969e-07 2.947149814334e+00-7.078051567078e-08
    9.806726218425e-01 1.827500000000e+02 7.832777953042e-01-7.553171762779e-09
    1.207193141583e-10 1.000000000000e+00 2.108000000000e+03 0.000000000000e+00
    2.400000000000e+00 6.300000000000e+01 5.122274160385e-09 4.900000000000e+01
    5.112000000000e+05 4.000000000000e+00
 5 20  6  6  0  0  0.0-1.407787203789e-05-7.958078640513e-13 0.000000000000e+00
    3.500000000000e+01 2.906250000000e+00 4.918061999880e-09 7.946051056235e-01
    4.637986421585e-07 5.895013106056e-03 9.650364518166e-06 5.153669670105e+03
    5.184000000000e+05 8.195638656616e-08-2.328170277020e+00 7.450580596924e-08
    9.526858388920e-01 1.893750000000e+02 7.983912370911e-01-8.116409509606e-09
    5.803813180686e-10 1.000000000000e+00 2.108000000000e+03 0.000000000000e+00
    2.400000000000e+00 0.000000000000e+00-1.117587089539e-08 3.500000000000e+01
    5.112000000000e+05 4.000000000000e+00
 4 20  6  6  0  0  0.0-9.877793490887e-05-4.888534022029e-12 0.000000000000e+00
    1.050000000000e+02-1.518750000000e+01 4.950920511426e-09-1.009475761357e+00
   -9.499490261078e-07 7.558149518445e-04 5.476176738739e-06 5.153663511276e+03
    5.184000000000e+05 1.862645149231e-08-1.216835637677e+00 5.587935447693e-09
    9.595147185423e-01 2.740000000000e+02-2.609534190419e+00-8.107123408517e-09
   -4.293035965037e-10 1.000000000000e+00 2.108000000000e+03 0.000000000000e+00
    2.400000000000e+00 0.000000000000e+00-4.190951585770e-09 1.050000000000e+02
    5.112000000000e+05 4.000000000000e+00
 3 20  6  6  0  0  0.0-1.995135098696e-04-1.239186531166e-11 0.000000000000e+00
    9.000000000000e+01 1.278125000000e+01 4.511973656099e-09 3.127139829034e+00
    5.681067705154e-07 2.867994015105e-03 9.620562195778e-06 5.153540624619e+03
    5.184000000000e+05-6.519258022308e-08-2.296150427882e+00-4.842877388000e-08
    9.657547239264e-01 1.940937500000e+02 7.118205289022e-01-7.799253441640e-09
    6.653848588073e-10 1.000000000000e+00 2.108000000000e+03 0.000000000000e+00
    2.400000000000e+00 0.000000000000e+00 1.862645149231e-09 9.000000000000e+01
    5.112000000000e+05 4.000000000000e+00
 7 20  6  6  0  0  0.0-2.978104166687e-04-8.753886504564e-12 0.000000000000e+00
    5.900000000000e+01 5.331250000000e+01 4.164459180726e-09-2.890644574264e+00
    2.535060048103e-06 1.392413245048e-02 1.238100230694e-05 5.153670703888e+03
    5.184000000000e+05 3.725290298462e-08-1.908132692814e-01-2.291053533554e-07
    9.534882596989e-01 1.345000000000e+02-2.392042515064e+00-7.516384516157e-09
   -5.750239520557e-10 1.000000000000e+00 2.108000000000e+03 0.000000000000e+00
    2.400000000000e+00 0.000000000000e+00-1.117587089539e-08 5.900000000000e+01
    5.112000000000e+05 4.000000000000e+00
 9 20  6  6  0  0  0.0-2.310001291335e-04-7.048583938740e-12 0.000000000000e+00
    7.100000000000e+01-1.062500000000e+01 5.188430404667e-09 3.504731889694e-01
   -6.128102540970e-07 1.520354533568e-03 5.137175321579e-06 5.153707386017e+03
    5.184000000000e+05-2.980232238770e-08-1.264844944429e+00 9.313225746155e-09
    9.522218612569e-01 2.758125000000e+02 1.802918664879e+00-8.266058600234e-09
   -3.317995350682e-10 1.000000000000e+00 2.108000000000e+03 0.000000000000e+00
    2.400000000000e+00 0.000000000000e+00 1.396983861923e-09 7.100000000000e+01
    5.112000000000e+05 4.000000000000e+00
 8 20  6  6  0  0  0.0-3.653578460217e-05-1.364242052659e-12 0.000000000000e+00
    1.740000000000e+02-5.025000000000e+01 4.643407702283e-09 1.321725447856e-01
   -2.501532435417e-06 5.342859774828e-03-1.005828380585e-07 5.153673105240e+03
    5.184000000000e+05 6.705522537231e-08 1.877043016730e+00-9.313225746155e-08
    9.693640836879e-01 3.838437500000e+02-6.652042112826e-02-8.540355740097e-09
   -1.285767843106e-11 1.000000000000e+00 2.108000000000e+03 0.000000000000e+00
    2.400000000000e+00 0.000000000000e+00 5.122274160385e-09 1.740000000000e+02
    5.112000000000e+05 4.000000000000e+00
 6 20  6  6  0  0  0.0-2.840138040483e-04-6.252776074689e-12 0.000000000000e+00
    9.500000000000e+01-1.559687500000e+02 3.905162665700e-09-1.976155460590e+00
   -7.959082722664e-06 1.880626310594e-03 1.037120819092e-05 5.153560504913e+03
    5.184000000000e+05-7.450580596924e-09 2.938909410379e+00 5.960464477539e-08
    9.802262884623e-01 1.910312500000e+02-1.055309129610e+00-7.637818145783e-09
   -1.000041655749e-11 1.000000000000e+00 2.108000000000e+03 0.000000000000e+00
    2.400000000000e+00 0.000000000000e+00 4.190951585770e-09 9.500000000000e+01
    5.112000000000e+05 4.000000000000e+00
10 20  6  6  0  0  0.0-3.628032281995e-04-1.125499693444e-11 0.000000000000e+00
    6.200000000000e+01 7.812500000000e+00 4.544832167645e-09 2.047086875237e+00
    4.451721906662e-07 5.629344843328e-03 9.581446647644e-06 5.153666221619e+03
    5.184000000000e+05-2.067536115646e-07-2.299183931885e+00 1.303851604462e-08
    9.657031765450e-01 1.999375000000e+02-2.631844444531e+00-7.861041729656e-09
    6.375265555400e-10 1.000000000000e+00 2.108000000000e+03 0.000000000000e+00
    2.400000000000e+00 0.000000000000e+00 2.328306436539e-09 6.200000000000e+01
    5.112000000000e+05 4.000000000000e+00
21 20  6  6  0  0  0.0 7.947906851768e-06 4.774847184308e-12 0.000000000000e+00
    9.000000000000e+00-1.473125000000e+02 4.389468553270e-09 2.027058657758e+00
   -7.692724466324e-06 2.386794064660e-02 8.365139365196e-06 5.155144815445e+03
    5.184000000000e+05 4.135072231293e-07 2.872833785104e+00-1.024454832077e-07
    9.535779102447e-01 2.139375000000e+02-1.324140558832e+00-7.616745839466e-09
   -1.303625729816e-10 1.000000000000e+00 2.108000000000e+03 0.000000000000e+00
    2.400000000000e+00 0.000000000000e+00-1.024454832077e-08 9.000000000000e+00
    5.112000000000e+05 4.000000000000e+00
27 20  6  6  0  0  0.0-3.129923716187e-04-1.000444171950e-11 0.000000000000e+00
    3.500000000000e+01-5.068750000000e+01 4.470186201198e-09-2.426213500388e-02
   -2.522021532059e-06 8.306047064252e-03 1.620501279831e-07 5.153662824631e+03
    5.184000000000e+05 8.940696716309e-08 1.891417364508e+00 6.146728992462e-08
    9.777941988589e-01 3.867187500000e+02 5.700598390862e-01-8.462852511776e-09
   -4.285892810353e-11 1.000000000000e+00 2.108000000000e+03 0.000000000000e+00
    2.400000000000e+00 0.000000000000e+00 1.862645149231e-09 3.500000000000e+01
    5.112000000000e+05 4.000000000000e+00
19 20  6  6  0  0  0.0-1.490609720349e-04 5.115907697473e-12 0.000000000000e+00
    3.100000000000e+01-7.787500000000e+01 4.349466887040e-09 2.566147043559e+00
   -4.142522811890e-06 9.469836251810e-03-3.296881914139e-07 5.153689788818e+03
    5.184000000000e+05 8.381903171539e-08 1.995552620559e+00-3.352761268616e-08
    9.819049255157e-01 3.977812500000e+02 1.630908348965e+00-8.211413466902e-09
   -1.639353999960e-10 1.000000000000e+00 2.108000000000e+03 0.000000000000e+00
    2.400000000000e+00 0.000000000000e+00-1.536682248116e-08 3.100000000000e+01
    5.112000000000e+05 4.000000000000e+00
13 20  6  6  0  0  0.0 1.593027263880e-05 3.183231456205e-12 0.000000000000e+00
    2.900000000000e+01-1.828125000000e+01 4.852344976788e-09-7.195385921048e-01
   -1.033768057823e-06 4.141996032558e-03 5.494803190231e-06 5.153648361206e+03
    5.184000000000e+05-2.235174179077e-08-1.121762977725e+00 6.519258022308e-08
    9.674228733201e-01 2.739062500000e+02 1.075006563755e+00-8.124624137493e-09
   -5.225217651289e-10 1.000000000000e+00 2.108000000000e+03 0.000000000000e+00
    2.400000000000e+00 0.000000000000e+00-1.117587089539e-08 2.900000000000e+01
    5.112000000000e+05 4.000000000000e+00
